GSAT0219 (GALILEO 23)
1 43566U 18060C   26193.14202295 -.00000088  00000+0  00000+0 0  9990
2 43566  57.1635 341.1125 0001798 300.6290  59.3431  1.70476011 49617
